ONEWEB-0144             
1 47290U 20100AJ  24236.40834210 -.00000418  00000+0 -11982-2 0  9991
2 47290  87.8921 122.6516 0001978  87.2864 272.8491 13.12441698177638
ONEWEB-0145             
1 47291U 20100AK  24237.14153133  .00000484  00000+0  13110-2 0  9998
2 47291  87.8920 122.5302 0001877  81.3234 278.8107 13.12446025177925
ONEWEB-0146             
1 47292U 20100AL  24236.37589027  .00000404  00000+0  10864-2 0  9993
2 47292  87.8920 122.6666 0001634  64.4211 295.7086 13.12444267177737
ONEWEB-0147             
1 47293U 20100AM  24236.41805236 -.00000297  00000+0 -86023-3 0  9995
2 47293  87.8918 122.6493 0001638  86.0310 274.1006 13.12440981177638
ONEWEB-0115             
1 48042U 21025A   24237.03974726  .00000262  00000+0  68350-3 0  9998
2 48042  87.8863  92.0084 0001604  80.1920 279.9390 13.13471492166685
ONEWEB-0152             
1 48043U 21025B   24236.59537967  .00000340  00000+0  89646-3 0  9999
2 48043  87.8870  92.0976 0001620  81.2885 278.8428 13.13470551166577
ONEWEB-0153             
1 48044U 21025C   24236.57316020 -.00000005  00000+0 -48474-4 0  9998
2 48044  87.8872  92.0915 0001800  84.2919 275.8415 13.13471711166565
ONEWEB-0154             
1 48045U 21025D   24236.56998489 -.00000046  00000+0 -15977-3 0  9999
2 48045  87.8868  92.1015 0001679  83.8851 276.2469 13.13471567166526
